[{"OBJECT_NAME":"DOORY-SAT","OBJECT_ID":"2023-188A","EPOCH":"2026-03-09T23:27:23.333760","MEAN_MOTION":14.80342987,"ECCENTRICITY":0.00094423,"INCLINATION":46.9821,"RA_OF_ASC_NODE":60.4458,"ARG_OF_PERICENTER":285.1315,"MEAN_ANOMALY":74.8534,"EPHEMERIS_TYPE":0,"CLASSIFICATION_TYPE":"U","NORAD_CAT_ID":58500,"ELEMENT_SET_NO":999,"REV_AT_EPOCH":12229,"BSTAR":0.00032429984,"MEAN_MOTION_DOT":2.298e-5,"MEAN_MOTION_DDOT":0},{"OBJECT_NAME":"CSG-3","OBJECT_ID":"2026-001A","EPOCH":"2026-03-09T23:00:18.057312","MEAN_MOTION":14.82149464,"ECCENTRICITY":0.00014236,"INCLINATION":97.8867,"RA_OF_ASC_NODE":253.9922,"ARG_OF_PERICENTER":86.9093,"MEAN_ANOMALY":273.2283,"EPHEMERIS_TYPE":0,"CLASSIFICATION_TYPE":"U","NORAD_CAT_ID":67304,"ELEMENT_SET_NO":999,"REV_AT_EPOCH":976,"BSTAR":8.0107311e-5,"MEAN_MOTION_DOT":5.85e-6,"MEAN_MOTION_DDOT":0}]
